#aV2020  4 14  0  0  0.00000000     288 DD+AD WGS84 FIT  NGA
## 2101 172800.00000000   300.00000000 58953 0.0000000000000
+   32     1  2  3  4  5  6  7  8  9 10 11 12 13 14 15 16 17
+         18 19 20 21 22 23 24 25 26 27 28 29 30 31 32  0  0
+          0  0  0  0  0  0  0  0  0  0  0  0  0  0  0  0  0
+          0  0  0  0  0  0  0  0  0  0  0  0  0  0  0  0  0
+          0  0  0  0  0  0  0  0  0  0  0  0  0  0  0  0  0
++         2  2  2  2  2  2  2  2  2  2  2  2  2  2  2  2  2
++         2  2  2  2  2  2  2  2  2  2  2  2  2  2  2  0  0
++         0  0  0  0  0  0  0  0  0  0  0  0  0  0  0  0  0
++         0  0  0  0  0  0  0  0  0  0  0  0  0  0  0  0  0
++         0  0  0  0  0  0  0  0  0  0  0  0  0  0  0  0  0
%c cc cc ccc ccc cccc cccc cccc cccc ccccc ccccc ccccc ccccc
%c cc cc ccc ccc cccc cccc cccc cccc ccccc ccccc ccccc ccccc
%f  0.0000000  0.000000000  0.00000000000  0.000000000000000
%f  0.0000000  0.000000000  0.00000000000  0.000000000000000
%i    0    0    0    0      0      0      0      0         0
%i    0    0    0    0      0      0      0      0         0
/*      NGA, ST. LOUIS,MO.                                  
/*   EPHEMERIS COMPUTED FROM 2 DAYS OF DATA                 
/*   EPOCHA v5 SMOOTHER                                     
/*   G1762 IERS2010 SATAF SATAPC                            
*  2020  4 14 13 35  0.00000000
P  1 -17172.596091 -14205.944017 -14914.107220   -357.361397                    
V  1  18229.810033   2786.019878 -23662.100433     -0.103930                    
P  2  -6173.070642  14632.424268  21925.052276   -439.327297                    
V  2 -25997.093156  -4326.384591  -4630.672442     -0.064545                    
P  3 -12878.946153 -21721.748609   8336.460393   -145.557317                    
V  3   -879.930275 -10865.922004 -29374.777327     -0.109675                    
P  4  -9977.335222 -11557.928943  21742.479852    -76.065344                    
V  4  19397.393007 -19614.721073  -1554.447676     -0.051407                    
P  5    160.471218  24050.010201  10914.149134    -10.845242                    
V  5  -7362.723220 -12412.698821  27322.486629     -0.006679                    
P  6 -17331.298359   8710.050743  18219.866746   -252.487426                    
V  6 -22159.285347  -6137.450522 -18153.026327     -0.076811                    
P  7 -26207.848696  -5652.591837   -662.247064   -258.496016                    
V  7   -551.751481  -2837.380378  31264.105361     -0.086446                    
P  8    257.724587 -19138.815329 -18283.707174    -30.606441                    
V  8  16652.511575 -16404.375579  17637.190686     -0.013274                    
P  9 -17955.827021   -680.083245  19515.763673   -197.615577                    
V  9  15562.176067 -19494.030823  13585.192002     -0.077294                    
P 10  13890.120272  -5999.321933 -21732.341848   -310.003022                    
V 10   8667.824070  26417.869572  -1973.933764     -0.120569                    
P 11  -6915.153955 -15136.502183 -21168.386133   -305.418427                    
V 11  25067.509151  -6921.626974  -3625.753287      0.107836                    
P 12  10306.418163  23561.088320   6744.131547    129.335435                    
V 12     54.392044   9057.500375 -30494.620633     -0.043177                    
P 13  -9143.940122  20528.849705 -14206.248374      2.062012                    
V 13 -14924.044581  10004.012858  24350.989979      0.030389                    
P 14  18532.626245 -18831.842211   1698.201559    -19.644647                    
V 14   3305.844052    977.315183 -31781.490752      0.024848                    
P 15   2921.038632  19115.074601 -18358.671608   -238.034575                    
V 15 -15359.012444  17164.025167  16075.259176      0.026022                    
P 16   1426.848852 -24309.422398   9824.608638   -146.526406                    
V 16   5118.781374  12095.188451  28997.805457     -0.043948                    
P 17 -21297.596143  13604.519559  -7671.335656    248.629809                    
V 17   5946.640198  -8667.597146 -30273.531603      0.061874                    
P 18  25185.976225   8098.217834   2580.651490    156.051966                    
V 18  -3829.165147   1826.945488  31564.562511      0.135626                    
P 19 -20185.176210  17249.767438   -745.902076   -172.170299                    
V 19   -980.128002  -1982.792635 -32215.127248      0.051342                    
P 20  18026.778490   5623.277947 -18836.558186    527.809961                    
V 20   8597.943510  22229.724876  14712.706081     -0.000192                    
P 21  26105.381424   3834.031189   -243.788064    -14.304192                    
V 21    723.823360   3491.429873  31760.327116      0.049895                    
P 22  -9872.321612 -24726.397400   -339.659508   -784.719666                    
V 22   3669.157817   -757.958767 -30969.123449      0.005996                    
P 23 -14810.163396  -6680.300192  21452.907975   -122.154321                    
V 23  17084.525559 -20069.412437   5240.692565      0.029674                    
P 24  15909.432877  14465.867225 -16015.830920    -11.712636                    
V 24 -19988.654975  -1066.238235 -20713.358533     -0.005080                    
P 25  15645.616180  15327.018003  14972.703395     -3.186887                    
V 25   4026.979300  18982.453883 -23005.782362      0.024982                    
P 26   7650.198878 -17665.623287  18167.809758    187.364649                    
V 26   9486.336229  21326.551783  16930.593496      0.073762                    
P 27  10126.593939 -21891.318940 -10859.402855   -266.671998                    
V 27  10847.613169  -8615.725429  28155.418946     -0.104765                    
P 28 -13215.574593   7034.371133 -21370.974791    725.433437                    
V 28  -6339.389948 -27758.327612  -4942.080744     -0.028865                    
P 29  15926.368298   3916.169518  20854.529512    -80.886651                    
V 29 -18748.091562  18741.805952  10758.332317     -0.091743                    
P 30 -23968.269237   2403.397062 -11383.878968   -198.218094                    
V 30 -13307.418440  -6366.524501  26383.940247     -0.084879                    
P 31  16362.222542  -9508.854298  18774.219704    -35.978339                    
V 31  22763.357747   6971.890223 -15825.247841     -0.024698                    
P 32  20557.818690 -14898.954828  -7465.092494    259.453097                    
V 32  -4307.413714   9081.382401 -29821.307689      0.084048                    
EOF
